{"type":"FeatureCollection","generated":"2026-09-02T23:21:50.614Z","features":[{"type":"Feature","properties":{"id":"region-tunisia","kind":"region","name_en":"Tunisia","name_fr":"Tunisie","name_ar":"تونس","parent":null,"code":null},"geometry":null},{"type":"Feature","properties":{"id":"region-north-east","kind":"region","name_en":"North East","name_fr":"Nord-Est","name_ar":"الشمال الشرقي","parent":"region-tunisia","code":null},"geometry":null},{"type":"Feature","properties":{"id":"region-north-west","kind":"region","name_en":"North West","name_fr":"Nord-Ouest","name_ar":"الشمال الغربي","parent":"region-tunisia","code":null},"geometry":null},{"type":"Feature","properties":{"id":"region-central-west","kind":"region","name_en":"Central West","name_fr":"Centre-Ouest","name_ar":"الوسط الغربي","parent":"region-tunisia","code":null},"geometry":null},{"type":"Feature","properties":{"id":"region-central-east","kind":"region","name_en":"Central East","name_fr":"Centre-Est","name_ar":"الوسط الشرقي","parent":"region-tunisia","code":null},"geometry":null},{"type":"Feature","properties":{"id":"region-south-west","kind":"region","name_en":"South West","name_fr":"Sud-Ouest","name_ar":"الجنوب الغربي","parent":"region-tunisia","code":null},"geometry":null},{"type":"Feature","properties":{"id":"region-south-east","kind":"region","name_en":"South East","name_fr":"Sud-Est","name_ar":"الجنوب الشرقي","parent":"region-tunisia","code":null},"geometry":null},{"type":"Feature","properties":{"id":"gov-tunis","kind":"governorate","name_en":"Tunis","name_fr":"Tunis","name_ar":"تونس","parent":"region-north-east","code":"TN-11"},"geometry":null},{"type":"Feature","properties":{"id":"gov-ariana","kind":"governorate","name_en":"Ariana","name_fr":"Ariana","name_ar":"أريانة","parent":"region-north-east","code":"TN-12"},"geometry":null},{"type":"Feature","properties":{"id":"gov-ben-arous","kind":"governorate","name_en":"Ben Arous","name_fr":"Ben Arous","name_ar":"بن عروس","parent":"region-north-east","code":"TN-13"},"geometry":null},{"type":"Feature","properties":{"id":"gov-manouba","kind":"governorate","name_en":"Manouba","name_fr":"La Manouba","name_ar":"منوبة","parent":"region-north-east","code":"TN-14"},"geometry":null},{"type":"Feature","properties":{"id":"gov-nabeul","kind":"governorate","name_en":"Nabeul","name_fr":"Nabeul","name_ar":"نابل","parent":"region-north-east","code":"TN-21"},"geometry":null},{"type":"Feature","properties":{"id":"gov-zaghouan","kind":"governorate","name_en":"Zaghouan","name_fr":"Zaghouan","name_ar":"زغوان","parent":"region-north-east","code":"TN-22"},"geometry":null},{"type":"Feature","properties":{"id":"gov-bizerte","kind":"governorate","name_en":"Bizerte","name_fr":"Bizerte","name_ar":"بنزرت","parent":"region-north-east","code":"TN-23"},"geometry":null},{"type":"Feature","properties":{"id":"gov-beja","kind":"governorate","name_en":"Béja","name_fr":"Béja","name_ar":"باجة","parent":"region-north-west","code":"TN-31"},"geometry":null},{"type":"Feature","properties":{"id":"gov-jendouba","kind":"governorate","name_en":"Jendouba","name_fr":"Jendouba","name_ar":"جندوبة","parent":"region-north-west","code":"TN-32"},"geometry":null},{"type":"Feature","properties":{"id":"gov-kef","kind":"governorate","name_en":"El Kef","name_fr":"Le Kef","name_ar":"الكاف","parent":"region-north-west","code":"TN-33"},"geometry":null},{"type":"Feature","properties":{"id":"gov-siliana","kind":"governorate","name_en":"Siliana","name_fr":"Siliana","name_ar":"سليانة","parent":"region-north-west","code":"TN-34"},"geometry":null},{"type":"Feature","properties":{"id":"gov-kairouan","kind":"governorate","name_en":"Kairouan","name_fr":"Kairouan","name_ar":"القيروان","parent":"region-central-west","code":"TN-41"},"geometry":null},{"type":"Feature","properties":{"id":"gov-kasserine","kind":"governorate","name_en":"Kasserine","name_fr":"Kasserine","name_ar":"القصرين","parent":"region-central-west","code":"TN-42"},"geometry":null},{"type":"Feature","properties":{"id":"gov-sidi-bouzid","kind":"governorate","name_en":"Sidi Bouzid","name_fr":"Sidi Bouzid","name_ar":"سيدي بوزيد","parent":"region-central-west","code":"TN-43"},"geometry":null},{"type":"Feature","properties":{"id":"gov-sousse","kind":"governorate","name_en":"Sousse","name_fr":"Sousse","name_ar":"سوسة","parent":"region-central-east","code":"TN-51"},"geometry":null},{"type":"Feature","properties":{"id":"gov-monastir","kind":"governorate","name_en":"Monastir","name_fr":"Monastir","name_ar":"المنستير","parent":"region-central-east","code":"TN-52"},"geometry":null},{"type":"Feature","properties":{"id":"gov-mahdia","kind":"governorate","name_en":"Mahdia","name_fr":"Mahdia","name_ar":"المهدية","parent":"region-central-east","code":"TN-53"},"geometry":null},{"type":"Feature","properties":{"id":"gov-sfax","kind":"governorate","name_en":"Sfax","name_fr":"Sfax","name_ar":"صفاقس","parent":"region-central-east","code":"TN-61"},"geometry":null},{"type":"Feature","properties":{"id":"gov-gafsa","kind":"governorate","name_en":"Gafsa","name_fr":"Gafsa","name_ar":"قفصة","parent":"region-south-west","code":"TN-71"},"geometry":null},{"type":"Feature","properties":{"id":"gov-tozeur","kind":"governorate","name_en":"Tozeur","name_fr":"Tozeur","name_ar":"توزر","parent":"region-south-west","code":"TN-72"},"geometry":null},{"type":"Feature","properties":{"id":"gov-kebili","kind":"governorate","name_en":"Kébili","name_fr":"Kébili","name_ar":"قبلي","parent":"region-south-west","code":"TN-73"},"geometry":null},{"type":"Feature","properties":{"id":"gov-gabes","kind":"governorate","name_en":"Gabès","name_fr":"Gabès","name_ar":"قابس","parent":"region-south-east","code":"TN-81"},"geometry":null},{"type":"Feature","properties":{"id":"gov-medenine","kind":"governorate","name_en":"Médenine","name_fr":"Médenine","name_ar":"مدنين","parent":"region-south-east","code":"TN-82"},"geometry":null},{"type":"Feature","properties":{"id":"gov-tataouine","kind":"governorate","name_en":"Tataouine","name_fr":"Tataouine","name_ar":"تطاوين","parent":"region-south-east","code":"TN-83"},"geometry":null},{"type":"Feature","properties":{"id":"del-tunis-bab-el-bhar","kind":"delegation","name_en":"Bab El Bhar","name_fr":"Bab El Bhar","name_ar":"باب البحر","parent":"gov-tunis","code":null},"geometry":null},{"type":"Feature","properties":{"id":"del-tunis-bab-souika","kind":"delegation","name_en":"Bab Souika","name_fr":"Bab Souika","name_ar":"باب سويقة","parent":"gov-tunis","code":null},"geometry":null},{"type":"Feature","properties":{"id":"del-tunis-carthage","kind":"delegation","name_en":"Carthage","name_fr":"Carthage","name_ar":"قرطاج","parent":"gov-tunis","code":null},"geometry":null},{"type":"Feature","properties":{"id":"del-tunis-cite-el-khadra","kind":"delegation","name_en":"Cité El Khadra","name_fr":"Cité El Khadra","name_ar":"حي الخضراء","parent":"gov-tunis","code":null},"geometry":null},{"type":"Feature","properties":{"id":"del-tunis-djebel-jelloud","kind":"delegation","name_en":"Djebel Jelloud","name_fr":"Djebel Jelloud","name_ar":"جبل الجلود","parent":"gov-tunis","code":null},"geometry":null},{"type":"Feature","properties":{"id":"del-tunis-el-hrairia","kind":"delegation","name_en":"El Hraïria","name_fr":"El Hraïria","name_ar":"الحرايرية","parent":"gov-tunis","code":null},"geometry":null},{"type":"Feature","properties":{"id":"del-tunis-el-kabaria","kind":"delegation","name_en":"El Kabaria","name_fr":"El Kabaria","name_ar":"الكبارية","parent":"gov-tunis","code":null},"geometry":null},{"type":"Feature","properties":{"id":"del-tunis-el-menzah","kind":"delegation","name_en":"El Menzah","name_fr":"El Menzah","name_ar":"المنزه","parent":"gov-tunis","code":null},"geometry":null},{"type":"Feature","properties":{"id":"del-tunis-el-omrane","kind":"delegation","name_en":"El Omrane","name_fr":"El Omrane","name_ar":"العمران","parent":"gov-tunis","code":null},"geometry":null},{"type":"Feature","properties":{"id":"del-tunis-el-omrane-superieur","kind":"delegation","name_en":"El Omrane Supérieur","name_fr":"El Omrane Supérieur","name_ar":"العمران الأعلى","parent":"gov-tunis","code":null},"geometry":null},{"type":"Feature","properties":{"id":"del-tunis-el-ouardia","kind":"delegation","name_en":"El Ouardia","name_fr":"El Ouardia","name_ar":"الوردية","parent":"gov-tunis","code":null},"geometry":null},{"type":"Feature","properties":{"id":"del-tunis-ettahrir","kind":"delegation","name_en":"Ettahrir","name_fr":"Ettahrir","name_ar":"التحرير","parent":"gov-tunis","code":null},"geometry":null},{"type":"Feature","properties":{"id":"del-tunis-ezzouhour","kind":"delegation","name_en":"Ezzouhour","name_fr":"Ezzouhour","name_ar":"الزهور","parent":"gov-tunis","code":null},"geometry":null},{"type":"Feature","properties":{"id":"del-tunis-la-goulette","kind":"delegation","name_en":"La Goulette","name_fr":"La Goulette","name_ar":"حلق الوادي","parent":"gov-tunis","code":null},"geometry":null},{"type":"Feature","properties":{"id":"del-tunis-la-marsa","kind":"delegation","name_en":"La Marsa","name_fr":"La Marsa","name_ar":"المرسى","parent":"gov-tunis","code":null},"geometry":null},{"type":"Feature","properties":{"id":"del-tunis-le-bardo","kind":"delegation","name_en":"Le Bardo","name_fr":"Le Bardo","name_ar":"باردو","parent":"gov-tunis","code":null},"geometry":null},{"type":"Feature","properties":{"id":"del-tunis-le-kram","kind":"delegation","name_en":"Le Kram","name_fr":"Le Kram","name_ar":"الكرم","parent":"gov-tunis","code":null},"geometry":null},{"type":"Feature","properties":{"id":"del-tunis-medina","kind":"delegation","name_en":"Médina","name_fr":"Médina","name_ar":"المدينة","parent":"gov-tunis","code":null},"geometry":null},{"type":"Feature","properties":{"id":"del-tunis-sejoumi","kind":"delegation","name_en":"Séjoumi","name_fr":"Séjoumi","name_ar":"السيجومي","parent":"gov-tunis","code":null},"geometry":null},{"type":"Feature","properties":{"id":"del-tunis-sidi-el-bechir","kind":"delegation","name_en":"Sidi El Béchir","name_fr":"Sidi El Béchir","name_ar":"سيدي البشير","parent":"gov-tunis","code":null},"geometry":null},{"type":"Feature","properties":{"id":"del-tunis-sidi-hassine","kind":"delegation","name_en":"Sidi Hassine","name_fr":"Sidi Hassine","name_ar":"سيدي حسين","parent":"gov-tunis","code":null},"geometry":null},{"type":"Feature","properties":{"id":"del-sfax-agareb","kind":"delegation","name_en":"Agareb","name_fr":"Agareb","name_ar":"عقارب","parent":"gov-sfax","code":null},"geometry":null},{"type":"Feature","properties":{"id":"del-sfax-bir-ali-ben-khalifa","kind":"delegation","name_en":"Bir Ali Ben Khalifa","name_fr":"Bir Ali Ben Khalifa","name_ar":"بئر علي بن خليفة","parent":"gov-sfax","code":null},"geometry":null},{"type":"Feature","properties":{"id":"del-sfax-el-amra","kind":"delegation","name_en":"El Amra","name_fr":"El Amra","name_ar":"العامرة","parent":"gov-sfax","code":null},"geometry":null},{"type":"Feature","properties":{"id":"del-sfax-el-hencha","kind":"delegation","name_en":"El Hencha","name_fr":"El Hencha","name_ar":"الحنشة","parent":"gov-sfax","code":null},"geometry":null},{"type":"Feature","properties":{"id":"del-sfax-ghraiba","kind":"delegation","name_en":"Graïba","name_fr":"Graïba","name_ar":"الغريبة","parent":"gov-sfax","code":null},"geometry":null},{"type":"Feature","properties":{"id":"del-sfax-jebeniana","kind":"delegation","name_en":"Jebiniana","name_fr":"Jebeniana","name_ar":"جبنيانة","parent":"gov-sfax","code":null},"geometry":null},{"type":"Feature","properties":{"id":"del-sfax-kerkennah","kind":"delegation","name_en":"Kerkennah","name_fr":"Kerkennah","name_ar":"قرقنة","parent":"gov-sfax","code":null},"geometry":null},{"type":"Feature","properties":{"id":"del-sfax-mahres","kind":"delegation","name_en":"Mahrès","name_fr":"Mahrès","name_ar":"المحرس","parent":"gov-sfax","code":null},"geometry":null},{"type":"Feature","properties":{"id":"del-sfax-menzel-chaker","kind":"delegation","name_en":"Menzel Chaker","name_fr":"Menzel Chaker","name_ar":"منزل شاكر","parent":"gov-sfax","code":null},"geometry":null},{"type":"Feature","properties":{"id":"del-sfax-sakiet-eddaier","kind":"delegation","name_en":"Sakiet Eddaïer","name_fr":"Sakiet Eddaïer","name_ar":"ساقية الدائر","parent":"gov-sfax","code":null},"geometry":null},{"type":"Feature","properties":{"id":"del-sfax-sakiet-ezzit","kind":"delegation","name_en":"Sakiet Ezzit","name_fr":"Sakiet Ezzit","name_ar":"ساقية الزيت","parent":"gov-sfax","code":null},"geometry":null},{"type":"Feature","properties":{"id":"del-sfax-ouest","kind":"delegation","name_en":"Sfax Ouest","name_fr":"Sfax Ouest","name_ar":"صفاقس الغربية","parent":"gov-sfax","code":null},"geometry":null},{"type":"Feature","properties":{"id":"del-sfax-sud","kind":"delegation","name_en":"Sfax Sud","name_fr":"Sfax Sud","name_ar":"صفاقس الجنوبية","parent":"gov-sfax","code":null},"geometry":null},{"type":"Feature","properties":{"id":"del-sfax-ville","kind":"delegation","name_en":"Sfax Ville","name_fr":"Sfax Ville","name_ar":"صفاقس المدينة","parent":"gov-sfax","code":null},"geometry":null},{"type":"Feature","properties":{"id":"del-sfax-skhira","kind":"delegation","name_en":"Skhira","name_fr":"Es-Skhira","name_ar":"الصخيرة","parent":"gov-sfax","code":null},"geometry":null},{"type":"Feature","properties":{"id":"del-sfax-thyna","kind":"delegation","name_en":"Thyna","name_fr":"Thyna","name_ar":"طينة","parent":"gov-sfax","code":null},"geometry":null},{"type":"Feature","properties":{"id":"del-nabeul-benikhalled","kind":"delegation","name_en":"Béni Khalled","name_fr":"Béni Khalled","name_ar":"بني خلاد","parent":"gov-nabeul","code":null},"geometry":null},{"type":"Feature","properties":{"id":"del-nabeul-benikhiar","kind":"delegation","name_en":"Béni Khiar","name_fr":"Béni Khiar","name_ar":"بني خيار","parent":"gov-nabeul","code":null},"geometry":null},{"type":"Feature","properties":{"id":"del-nabeul-bou-argoub","kind":"delegation","name_en":"Bou Argoub","name_fr":"Bou Argoub","name_ar":"بوعرقوب","parent":"gov-nabeul","code":null},"geometry":null},{"type":"Feature","properties":{"id":"del-nabeul-dar-chaabane-el-fehri","kind":"delegation","name_en":"Dar Chaâbane El Fehri","name_fr":"Dar Chaâbane El Fehri","name_ar":"دار شعبان الفهري","parent":"gov-nabeul","code":null},"geometry":null},{"type":"Feature","properties":{"id":"del-nabeul-el-haouaria","kind":"delegation","name_en":"El Haouaria","name_fr":"El Haouaria","name_ar":"الهوارية","parent":"gov-nabeul","code":null},"geometry":null},{"type":"Feature","properties":{"id":"del-nabeul-el-mida","kind":"delegation","name_en":"El Mida","name_fr":"El Mida","name_ar":"الميدة","parent":"gov-nabeul","code":null},"geometry":null},{"type":"Feature","properties":{"id":"del-nabeul-grombalia","kind":"delegation","name_en":"Grombalia","name_fr":"Grombalia","name_ar":"قرمبالية","parent":"gov-nabeul","code":null},"geometry":null},{"type":"Feature","properties":{"id":"del-nabeul-hammam-el-ghezaz","kind":"delegation","name_en":"Hammam El Ghezaz","name_fr":"Hammam Ghezèze","name_ar":"حمام الأغزاز","parent":"gov-nabeul","code":null},"geometry":null},{"type":"Feature","properties":{"id":"del-nabeul-hammamet","kind":"delegation","name_en":"Hammamet","name_fr":"Hammamet","name_ar":"الحمامات","parent":"gov-nabeul","code":null},"geometry":null},{"type":"Feature","properties":{"id":"del-nabeul-kelibia","kind":"delegation","name_en":"Kélibia","name_fr":"Kélibia","name_ar":"قليبية","parent":"gov-nabeul","code":null},"geometry":null},{"type":"Feature","properties":{"id":"del-nabeul-korba","kind":"delegation","name_en":"Korba","name_fr":"Korba","name_ar":"قربة","parent":"gov-nabeul","code":null},"geometry":null},{"type":"Feature","properties":{"id":"del-nabeul-menzel-bouzelfa","kind":"delegation","name_en":"Menzel Bouzelfa","name_fr":"Menzel Bouzelfa","name_ar":"منزل بوزلفة","parent":"gov-nabeul","code":null},"geometry":null},{"type":"Feature","properties":{"id":"del-nabeul-menzel-temime","kind":"delegation","name_en":"Menzel Temime","name_fr":"Menzel Temime","name_ar":"منزل تميم","parent":"gov-nabeul","code":null},"geometry":null},{"type":"Feature","properties":{"id":"del-nabeul-nabeul","kind":"delegation","name_en":"Nabeul","name_fr":"Nabeul","name_ar":"نابل","parent":"gov-nabeul","code":null},"geometry":null},{"type":"Feature","properties":{"id":"del-nabeul-soliman","kind":"delegation","name_en":"Soliman","name_fr":"Soliman","name_ar":"سليمان","parent":"gov-nabeul","code":null},"geometry":null},{"type":"Feature","properties":{"id":"del-nabeul-takelsa","kind":"delegation","name_en":"Takelsa","name_fr":"Takelsa","name_ar":"تاكلسة","parent":"gov-nabeul","code":null},"geometry":null},{"type":"Feature","properties":{"id":"place-rades-port","kind":"port","name_en":"Port of Radès","name_fr":"port de Radès","name_ar":"ميناء رادس","parent":"gov-ben-arous","asset":true},"geometry":{"type":"Point","coordinates":[10.287201,36.805401]}},{"type":"Feature","properties":{"id":"place-bizerte-port","kind":"port","name_en":"Port of Bizerte","name_fr":"port de Bizerte","name_ar":"ميناء بنزرت - منزل بورقيبة","parent":"gov-bizerte","asset":true},"geometry":{"type":"Point","coordinates":[9.838439,37.24966]}},{"type":"Feature","properties":{"id":"place-sfax-port","kind":"port","name_en":"Port of Sfax","name_fr":"port de Sfax","name_ar":"ميناء صفاقس","parent":"gov-sfax","asset":true},"geometry":{"type":"Point","coordinates":[10.769189,34.724016]}},{"type":"Feature","properties":{"id":"place-gabes-port","kind":"port","name_en":"Port of Gabès","name_fr":"Port de Gabès","name_ar":"ميناء قابس","parent":"gov-gabes","asset":true},"geometry":{"type":"Point","coordinates":[10.116333,33.895889]}},{"type":"Feature","properties":{"id":"place-zarzis-port","kind":"port","name_en":"Port of Zarzis","name_fr":"port de Zarzis","name_ar":"ميناء جرجيس","parent":"gov-medenine","asset":true},"geometry":{"type":"Point","coordinates":[11.118591,33.493588]}},{"type":"Feature","properties":{"id":"place-tunis-carthage-airport","kind":"airport","name_en":"Tunis–Carthage International Airport","name_fr":"aéroport international de Tunis-Carthage","name_ar":"مطار تونس قرطاج الدولي","parent":"gov-tunis","asset":true},"geometry":{"type":"Point","coordinates":[10.227222,36.851111]}},{"type":"Feature","properties":{"id":"place-enfidha-airport","kind":"airport","name_en":"Enfidha–Hammamet International Airport","name_fr":"aéroport international d'Enfidha-Hammamet","name_ar":"مطار النفيضة الحمامات الدولي","parent":"gov-sousse","asset":true},"geometry":{"type":"Point","coordinates":[10.438611,36.075833]}},{"type":"Feature","properties":{"id":"place-djerba-zarzis-airport","kind":"airport","name_en":"Djerba–Zarzis International Airport","name_fr":"aéroport international de Djerba-Zarzis","name_ar":"مطار جربة جرجيس الدولي","parent":"gov-medenine","asset":true},"geometry":{"type":"Point","coordinates":[10.775278,33.875]}},{"type":"Feature","properties":{"id":"place-monastir-airport","kind":"airport","name_en":"Monastir Habib Bourguiba International Airport","name_fr":"aéroport international de Monastir Habib-Bourguiba","name_ar":"مطار الحبيب بورقيبة الدولي","parent":"gov-monastir","asset":true},"geometry":{"type":"Point","coordinates":[10.754722,35.758056]}},{"type":"Feature","properties":{"id":"place-tabarka-airport","kind":"airport","name_en":"Tabarka-Aïn Draham International Airport","name_fr":"aéroport international de Tabarka-Aïn Draham","name_ar":"مطار طبرقة عين دراهم الدولي","parent":"gov-jendouba","asset":true},"geometry":{"type":"Point","coordinates":[8.876944,36.98]}},{"type":"Feature","properties":{"id":"place-gafsa-basin","kind":"resource-field","name_en":"Gafsa phosphate basin","name_fr":"bassin minier de Gafsa","name_ar":"الحوض المنجمي","parent":"gov-gafsa","asset":true},"geometry":{"type":"Point","coordinates":[8.401389,34.319444]}},{"type":"Feature","properties":{"id":"place-rades-power","kind":"power-plant","name_en":"Radès Power Plant","name_fr":"centrale électrique de Radès","name_ar":"محطة كهرباء رادس","parent":"gov-ben-arous","asset":true},"geometry":{"type":"Point","coordinates":[10.282723,36.796403]}},{"type":"Feature","properties":{"id":"place-la-goulette-port","kind":"port","name_en":"Port of La Goulette","name_fr":"port de La Goulette","name_ar":"ميناء حلق الوادي","parent":"gov-tunis","asset":true},"geometry":{"type":"Point","coordinates":[10.306775,36.809869]}},{"type":"Feature","properties":{"id":"place-sousse-port","kind":"port","name_en":"Port of Sousse","name_fr":"port de Sousse","name_ar":"ميناء سوسة","parent":"gov-sousse","asset":true},"geometry":{"type":"Point","coordinates":[10.642604,35.824265]}},{"type":"Feature","properties":{"id":"place-mahdia-port","kind":"port","name_en":"Port of Mahdia","name_fr":"port de Mahdia","name_ar":"ميناء المهدية","parent":"gov-mahdia","asset":true},"geometry":{"type":"Point","coordinates":[11.06739,35.49988]}},{"type":"Feature","properties":{"id":"place-kelibia-port","kind":"port","name_en":"Port of Kélibia","name_fr":"port de Kélibia","name_ar":"ميناء قليبية","parent":"gov-nabeul","asset":true},"geometry":{"type":"Point","coordinates":[11.11146,36.83409]}},{"type":"Feature","properties":{"id":"place-tabarka-port","kind":"port","name_en":"Port of Tabarka","name_fr":"port de Tabarka","name_ar":"ميناء طبرقة","parent":"gov-jendouba","asset":true},"geometry":{"type":"Point","coordinates":[8.7608492,36.9593191]}},{"type":"Feature","properties":{"id":"place-chebba-port","kind":"port","name_en":"Port of Chebba","name_fr":"port de Chebba","name_ar":"ميناء الشابة","parent":"gov-mahdia","asset":true},"geometry":{"type":"Point","coordinates":[11.16302,35.23256]}},{"type":"Feature","properties":{"id":"place-houmt-souk-port","kind":"port","name_en":"Port of Houmt Souk","name_fr":"port de Houmt Souk","name_ar":"ميناء حومة السوق","parent":"gov-medenine","asset":true},"geometry":{"type":"Point","coordinates":[10.85741,33.8888]}},{"type":"Feature","properties":{"id":"place-tozeur-airport","kind":"airport","name_en":"Tozeur–Nefta International Airport","name_fr":"aéroport international de Tozeur-Nefta","name_ar":"مطار توزر نفطة الدولي","parent":"gov-tozeur","asset":true},"geometry":{"type":"Point","coordinates":[8.110556,33.939722]}},{"type":"Feature","properties":{"id":"place-gafsa-airport","kind":"airport","name_en":"Gafsa–Ksar International Airport","name_fr":"aéroport international de Gafsa-Ksar","name_ar":"مطار قفصة قصر الدولي","parent":"gov-gafsa","asset":true},"geometry":{"type":"Point","coordinates":[8.8225,34.421944]}},{"type":"Feature","properties":{"id":"place-sfax-thyna-airport","kind":"airport","name_en":"Sfax–Thyna International Airport","name_fr":"aéroport international de Sfax-Thyna","name_ar":"مطار صفاقس طينة الدولي","parent":"gov-sfax","asset":true},"geometry":{"type":"Point","coordinates":[10.690833,34.717778]}},{"type":"Feature","properties":{"id":"place-redeyef-mine","kind":"resource-field","name_en":"Redeyef phosphate mine","name_fr":"mine de phosphate de Redeyef","name_ar":"منجم الرديف للفوسفاط","parent":"gov-gafsa","asset":true},"geometry":{"type":"Point","coordinates":[8.15,34.383]}},{"type":"Feature","properties":{"id":"place-moulares-mine","kind":"resource-field","name_en":"Moularès phosphate mine","name_fr":"mine de phosphate de Moularès","name_ar":"منجم مولاريس للفوسفاط","parent":"gov-gafsa","asset":true},"geometry":{"type":"Point","coordinates":[8.273384,34.485737]}},{"type":"Feature","properties":{"id":"place-metlaoui-mine","kind":"resource-field","name_en":"Métlaoui phosphate mine","name_fr":"mine de phosphate de Métlaoui","name_ar":"منجم المتلوي للفوسفاط","parent":"gov-gafsa","asset":true},"geometry":{"type":"Point","coordinates":[8.401389,34.319444]}},{"type":"Feature","properties":{"id":"place-mdhilla-mine","kind":"resource-field","name_en":"Mdhilla phosphate mine","name_fr":"mine de phosphate de Mdhilla","name_ar":"منجم المضيلة للفوسفاط","parent":"gov-gafsa","asset":true},"geometry":{"type":"Point","coordinates":[8.752624,34.290955]}},{"type":"Feature","properties":{"id":"place-la-goulette-power","kind":"power-plant","name_en":"La Goulette Power Plant","name_fr":"centrale électrique de La Goulette","name_ar":"محطة حلق الوادي الكهربائية","parent":"gov-tunis","asset":true},"geometry":{"type":"Point","coordinates":[10.289694,36.814778]}},{"type":"Feature","properties":{"id":"place-sousse-power","kind":"power-plant","name_en":"Sousse Thermal Power Plant","name_fr":"centrale thermique de Sousse","name_ar":"محطة سوسة الحرارية","parent":"gov-sousse","asset":true},"geometry":{"type":"Point","coordinates":[10.679111,35.784806]}},{"type":"Feature","properties":{"id":"place-sfax-power","kind":"power-plant","name_en":"Sfax Power Plant","name_fr":"centrale électrique de Sfax","name_ar":"محطة صفاقس الكهربائية","parent":"gov-sfax","asset":true},"geometry":{"type":"Point","coordinates":[10.703092,34.807269]}},{"type":"Feature","properties":{"id":"place-gabes-power","kind":"power-plant","name_en":"Ghannouch (Gabès) Power Plant","name_fr":"centrale électrique de Ghannouch (Gabès)","name_ar":"محطة قنوش الكهربائية","parent":"gov-gabes","asset":true},"geometry":{"type":"Point","coordinates":[10.093194,33.926306]}},{"type":"Feature","properties":{"id":"place-zarzis-power","kind":"power-plant","name_en":"Zarzis Power Plant","name_fr":"centrale électrique de Zarzis","name_ar":"محطة جرجيس الكهربائية","parent":"gov-medenine","asset":true},"geometry":{"type":"Point","coordinates":[11.01153,33.470031]}},{"type":"Feature","properties":{"id":"place-korba-power","kind":"power-plant","name_en":"Korba Power Plant","name_fr":"centrale électrique de Korba","name_ar":"محطة قربة الكهربائية","parent":"gov-nabeul","asset":true},"geometry":{"type":"Point","coordinates":[10.829422,36.580905]}},{"type":"Feature","properties":{"id":"place-tunis-sud-power","kind":"power-plant","name_en":"Tunis South Power Plant","name_fr":"centrale électrique de Tunis Sud","name_ar":"محطة تونس الجنوبية الكهربائية","parent":"gov-tunis","asset":true},"geometry":{"type":"Point","coordinates":[10.201409,36.765954]}},{"type":"Feature","properties":{"id":"place-borj-el-amri-power","kind":"power-plant","name_en":"Borj El Amri (Mornaguia) Power Plant","name_fr":"centrale de Borj El Amri","name_ar":"محطة برج العامري الكهربائية","parent":"gov-manouba","asset":true},"geometry":{"type":"Point","coordinates":[9.920563,36.677112]}},{"type":"Feature","properties":{"id":"place-metlaoui-power","kind":"power-plant","name_en":"Métlaoui Power Plant","name_fr":"centrale électrique de Métlaoui","name_ar":"محطة المتلوي الكهربائية","parent":"gov-gafsa","asset":true},"geometry":{"type":"Point","coordinates":[8.424569,34.313718]}},{"type":"Feature","properties":{"id":"place-sfax-desalination","kind":"desalination","name_en":"Sfax Desalination Plant","name_fr":"usine de dessalement de Sfax","name_ar":"محطة تحلية مياه البحر بصفاقس","parent":"gov-sfax","asset":true},"geometry":{"type":"Point","coordinates":[10.599167,34.575278]}},{"type":"Feature","properties":{"id":"place-zarat-desalination","kind":"desalination","name_en":"Zarat Desalination Plant","name_fr":"station de dessalement de Zarat","name_ar":"محطة تحلية المياه بالزارات","parent":"gov-gabes","asset":true},"geometry":{"type":"Point","coordinates":[10.380932,33.678046]}},{"type":"Feature","properties":{"id":"place-bizerte-free-zone","kind":"free-zone","name_en":"Bizerte Free Zone","name_fr":"zone franche de Bizerte","name_ar":"المنطقة الحرة ببنزرت","parent":"gov-bizerte","asset":true},"geometry":{"type":"Point","coordinates":[9.861336,37.26653]}},{"type":"Feature","properties":{"id":"place-sidi-daoud-wind","kind":"power-plant","name_en":"Sidi Daoud Wind Farm","name_fr":"parc éolien de Sidi Daoud","name_ar":"مزرعة رياح سيدي داود","parent":"gov-nabeul","asset":true},"geometry":{"type":"Point","coordinates":[10.928,37.0315]}},{"type":"Feature","properties":{"id":"place-skhira-refinery","kind":"industrial-zone","name_en":"La Skhira Oil Refinery","name_fr":"raffinerie de Skhira","name_ar":null,"parent":"gov-sfax","asset":true},"geometry":{"type":"Point","coordinates":[10.1281707,34.3314177]}},{"type":"Feature","properties":{"id":"place-bizerte-refinery","kind":"industrial-zone","name_en":"Bizerte Refinery","name_fr":"raffinerie de Bizerte (Zarzouna)","name_ar":"مصفاة جرزونة","parent":"gov-bizerte","asset":true},"geometry":{"type":"Point","coordinates":[9.8874421,37.2564461]}},{"type":"Feature","properties":{"id":"place-gabes-matmata-airport","kind":"airport","name_en":"Gabès–Matmata International Airport","name_fr":"aéroport de Gabès-Matmata","name_ar":"مطار قابس مطماطة الدولي","parent":"gov-gabes","asset":true},"geometry":{"type":"Point","coordinates":[9.92005,33.73426]}},{"type":"Feature","properties":{"id":"place-yasmine-hammamet-marina","kind":"port","name_en":"Yasmine-Hammamet Marina","name_fr":"port de plaisance Yasmine Hammamet","name_ar":null,"parent":"gov-nabeul","asset":true},"geometry":{"type":"Point","coordinates":[10.5459205,36.3736095]}},{"type":"Feature","properties":{"id":"place-sehib-mine","kind":"resource-field","name_en":"Sehib phosphate mine","name_fr":"mine de phosphate de Sehib","name_ar":null,"parent":"gov-gafsa","asset":true},"geometry":{"type":"Point","coordinates":[8.6467126,34.2370276]}}]}